ONEWEB-0328             
1 49197U 21083M   26022.26515987  .00000227  00000+0  58774-3 0  9993
2 49197  87.9015 349.2017 0001819  86.9996 273.1341 13.13470427211742
ONEWEB-0331             
1 49198U 21083N   26022.23682409  .00000103  00000+0  22942-3 0  9996
2 49198  87.9196   4.4222 0002171  87.5448 272.5933 13.18685819210772
ONEWEB-0333             
1 49199U 21083P   26022.26007927  .00000160  00000+0  40232-3 0  9991
2 49199  87.8999 349.2488 0001814  80.5155 279.6179 13.13470757211755
ONEWEB-0334             
1 49200U 21083Q   26022.23496006  .00000009  00000+0 -86939-5 0  9990
2 49200  87.9229 303.5772 0001139  42.0285 318.0935 13.20771202217527
ONEWEB-0335             
1 49201U 21083R   26022.17880944 -.00000003  00000+0 -42227-4 0  9998
2 49201  87.9001 349.2553 0001975  83.4128 276.7226 13.13469581211751
ONEWEB-0336             
1 49202U 21083S   26021.92151367 -.00000221  00000+0 -63981-3 0  9992
2 49202  87.9003 349.3039 0002188  87.1106 273.0273 13.13469815211716
ONEWEB-0337             
1 49203U 21083T   26021.93151160 -.00000298  00000+0 -85219-3 0  9997
2 49203  87.9001 349.3133 0001864  88.1399 271.9943 13.13471787211717
ONEWEB-0338             
1 49204U 21083U   26022.20969565  .00000157  00000+0  35390-3 0  9992
2 49204  87.9225 303.5868 0001451  72.3062 287.8230 13.20774019217541
ONEWEB-0339             
1 49205U 21083V   26021.86392499 -.00000282  00000+0 -80828-3 0  9997
2 49205  87.9003 349.3105 0001635  83.8468 276.2848 13.13468238211680
ONEWEB-0340             
1 49206U 21083W   26022.22362022  .00000091  00000+0  19792-3 0  9996
2 49206  87.9197   4.4297 0001907  84.6826 275.4523 13.18686518210739
ONEWEB-0341             
1 49207U 21083X   26022.23022865  .00000065  00000+0  13137-3 0  9994
2 49207  87.9193   4.4391 0001901 101.7910 258.3435 13.18686020210752
ONEWEB-0342             
1 49208U 21083Y   26022.21602246  .00000165  00000+0  37374-3 0  9990
2 49208  87.9231 303.5598 0001576  73.3463 286.7844 13.20772422217518
ONEWEB-0343             
1 49209U 21083Z   26022.23846831 -.00000076  00000+0 -22544-3 0  9999
2 49209  87.9196   4.4312 0001489 101.4229 258.7071 13.18686494210802
ONEWEB-0344             
1 49210U 21083AA  26021.85887600 -.00000338  00000+0 -95995-3 0  9998
2 49210  87.8997 349.3398 0001858  95.5813 264.5528 13.13470090211686
ONEWEB-0345             
1 49211U 21083AB  26021.92657390 -.00000232  00000+0 -66932-3 0  9990
2 49211  87.9008 349.2893 0001790  94.5060 265.6273 13.13470950211705
ONEWEB-0346             
1 49212U 21083AC  26022.23517754  .00000113  00000+0  25439-3 0  9998
2 49212  87.9189   4.4442 0002518  84.2605 275.8815 13.18685243210742
ONEWEB-0348             
1 49213U 21083AD  26022.20654659  .00000204  00000+0  46903-3 0  9992
2 49213  87.9232 303.5652 0002177  87.0065 273.1318 13.20770818217540
ONEWEB-0350             
1 49214U 21083AE  26021.85972539 -.00000244  00000+0 -70375-3 0  9999
2 49214  87.9014 349.3018 0001892  92.2098 267.9248 13.13470404211727
ONEWEB-0351             
1 49215U 21083AF  26022.20009809  .00000173  00000+0  39328-3 0  9993
2 49215  87.9232 303.5646 0000842  83.6542 276.4687 13.20773470217502
ONEWEB-0352             
1 49216U 21083AG  26021.91642801 -.00000074  00000+0 -23814-3 0  9991
2 49216  87.9005 349.3086 0001395  83.0239 277.1049 13.13470107211820
ONEWEB-0354             
1 49217U 21083AH  26022.22549446  .00000122  00000+0  26922-3 0  9993
2 49217  87.9234 303.5588 0001866  84.2044 275.9302 13.20772090217541
ONEWEB-0355             
1 49218U 21083AJ  26021.86917641 -.00000040  00000+0 -14481-3 0  9997
2 49218  87.8997 349.3313 0001655  88.7984 271.3335 13.13470656211690
ONEWEB-0357             
1 49219U 21083AK  26022.22233958  .00000137  00000+0  30564-3 0  9996
2 49219  87.9228 303.5549 0001545  76.0402 284.0903 13.20773323217542
ONEWEB-0332             
1 49279U 21090A   26022.22471699 -.00000075  00000+0 -23755-3 0  9993
2 49279  87.9021 318.8042 0001605  70.9077 289.2226 13.14502065208400
ONEWEB-0347             
1 49280U 21090B   26022.21284795  .00000193  00000+0  44360-3 0  9997
2 49280  87.9226 303.5654 0001714  66.3188 293.8125 13.20774671211776
ONEWEB-0349             
1 49281U 21090C   26022.24442952  .00000164  00000+0  37164-3 0  9994
2 49281  87.9229 303.5587 0001667  78.0255 282.1065 13.20772461210562
ONEWEB-0353             
1 49282U 21090D   26022.21679856 -.00000030  00000+0 -11567-3 0  9990
2 49282  87.9031 318.7957 0001623  67.3251 292.8050 13.14503312208404
ONEWEB-0356             
1 49283U 21090E   26022.24285193  .00000173  00000+0  39346-3 0  9992
2 49283  87.9230 303.5526 0002509  64.0580 296.0811 13.20772355210566
ONEWEB-0358             
1 49284U 21090F   26022.19708214  .00000176  00000+0  40029-3 0  9994
2 49284  87.9235 303.5635 0001863  78.3386 281.7956 13.20772644211289
ONEWEB-0359             
1 49285U 21090G   26022.19392510  .00000214  00000+0  49554-3 0  9998
2 49285  87.9234 303.5620 0001974  87.0188 273.1171 13.20772541211261
ONEWEB-0360             
1 49286U 21090H   26022.26020770  .00000183  00000+0  41891-3 0  9994
2 49286  87.9232 303.5554 0001734  80.8478 279.2852 13.20773584210588
ONEWEB-0361             
1 49287U 21090J   26022.24126959  .00000143  00000+0  31879-3 0  9990
2 49287  87.9230 303.5570 0001875  73.0638 287.0701 13.20773986211030
ONEWEB-0362             
1 49288U 21090K   26022.30572388  .00000020  00000+0  18559-4 0  9994
2 49288  87.9232 334.0136 0001575  84.6668 275.4645 13.19726021207677
ONEWEB-0363             
1 49289U 21090L   26022.25705610  .00000151  00000+0  33987-3 0  9991
2 49289  87.9233 303.5537 0002066  71.8149 288.3209 13.20772329211042
ONEWEB-0364             
1 49290U 21090M   26022.21917870  .00000025  00000+0  29276-4 0  9999
2 49290  87.9222 303.5810 0001817  74.7391 285.3943 13.20772898212178
ONEWEB-0365             
1 49291U 21090N   26022.23937046  .00000082  00000+0  17317-3 0  9994
2 49291  87.9250 333.9991 0001681  77.7699 282.3622 13.19727615207170
ONEWEB-0366             
1 49292U 21090P   26022.28974313 -.00000058  00000+0 -19183-3 0  9996
2 49292  87.9026 318.7950 0001783  78.0638 282.0691 13.14501704208390
ONEWEB-0367             
1 49293U 21090Q   26022.25547330  .00000099  00000+0  21205-3 0  9990
2 49293  87.9236 303.5538 0001537  78.1853 281.9453 13.20773596210568
ONEWEB-0368             
1 49294U 21090R   26022.22863842  .00000134  00000+0  29672-3 0  9993
2 49294  87.9224 303.5855 0001975  53.5174 306.6141 13.20773483211719
ONEWEB-0369             
1 49295U 21090S   26022.31045943  .00000071  00000+0  14618-3 0  9992
2 49295  87.9239 334.0079 0001767  75.7484 284.3845 13.19725423207179
ONEWEB-0370             
1 49296U 21090T   26022.26487868 -.00002389  00000+0 -59074-2 0  9993
2 49296  87.9228 303.5542 0001567  92.4096 267.7217 13.20791645210608
ONEWEB-0371             
1 49297U 21090U   26022.24254682  .00000077  00000+0  16092-3 0  9992
2 49297  87.9242 334.0092 0001697  77.5412 282.5911 13.19725759207203
ONEWEB-0372             
1 49298U 21090V   26022.25376324  .00000166  00000+0  37624-3 0  9995
2 49298  87.9229 303.5558 0001638  73.5089 286.6225 13.20772501210574
ONEWEB-0373             
1 49299U 21090W   26022.20495839  .00000147  00000+0  33074-3 0  9998
2 49299  87.9223 303.5765 0001815  78.5355 281.5982 13.20774023211753
ONEWEB-0374             
1 49300U 21090X   26022.20092690  .00000260  00000+0  66549-3 0  9998
2 49300  87.9029 318.7935 0002196  69.0413 291.0952 13.14504129208389
ONEWEB-0375             
1 49301U 21090Y   26022.26810179  .00000086  00000+0  18026-3 0  9998
2 49301  87.9231 303.5462 0002272  77.0120 283.1267 13.20770785211263
ONEWEB-0376             
1 49302U 21090Z   26022.24096100  .00000094  00000+0  20300-3 0  9994
2 49302  87.9247 334.0000 0001596  75.1488 284.9822 13.19726807207201
ONEWEB-0377             
1 49303U 21090AA  26022.25404186  .00000195  00000+0  44670-3 0  9991
2 49303  87.9231 303.5516 0001813  81.7902 278.3437 13.20772712211251
ONEWEB-0378             
1 49304U 21090AB  26022.20036520  .00000193  00000+0  44195-3 0  9990
2 49304  87.9229 303.5753 0001840  74.0011 286.1325 13.20773921210512
ONEWEB-0379             
1 49305U 21090AC  26022.27228475  .00000314  00000+0  81318-3 0  9993
2 49305  87.9031 318.7886 0001781  72.5260 287.6065 13.14504726208390
ONEWEB-0380             
1 49306U 21090AD  26022.23780335  .00000024  00000+0  27598-4 0  9997
2 49306  87.9237 334.0196 0001996  82.3755 277.7604 13.19726295207176
ONEWEB-0381             
1 49307U 21090AE  26022.25074039  .00000113  00000+0  24612-3 0  9999
2 49307  87.9231 303.5553 0001973  75.2721 284.8631 13.20774567210561
ONEWEB-0382             
1 49308U 21090AF  26022.23810913  .00000045  00000+0  77734-4 0  9995
2 49308  87.9232 303.5544 0002005  70.7001 289.4349 13.20772929210557
ONEWEB-0383             
1 49309U 21090AG  26022.26595860  .00000401  00000+0  10478-2 0  9996
2 49309  87.9034 318.7750 0001827  73.0357 287.0973 13.14503995208424
ONEWEB-0384             
1 49310U 21090AH  26022.23062908  .00000126  00000+0  27705-3 0  9993
2 49310  87.9242 303.5952 0002160  63.4713 296.6641 13.20803143210564
ONEWEB-0385             
1 49311U 21090AJ  26022.23022234  .00000138  00000+0  30790-3 0  9993
2 49311  87.9230 303.5599 0001853  74.8196 285.3143 13.20769925210536
ONEWEB-0386             
1 49312U 21090AK  26022.24757203  .00000183  00000+0  41698-3 0  9995
2 49312  87.9232 303.5415 0001908  70.3899 289.7441 13.20774408210551
ONEWEB-0387             
1 49313U 21090AL  26022.23179843  .00000123  00000+0  27128-3 0  9999
2 49313  87.9224 303.5861 0001988  79.5326 280.6031 13.20773514210554
ONEWEB-0388             
1 49314U 21090AM  26022.30887957  .00000067  00000+0  13480-3 0  9993
2 49314  87.9236 334.0044 0001923  76.8660 283.2687 13.19727144207176
